{"fetched_at":"2026-07-07T18:29:33.473Z","source":"https://celestrak.org/NORAD/elements/gp.php?NAME=JILIN&FORMAT=JSON","constellation":"jilin-1-kuanfu","records":[{"OBJECT_NAME":"JILIN-1 KUANFU 01","OBJECT_ID":"2020-003A","EPOCH":"2026-07-07T11:40:41.032128","CLASSIFICATION_TYPE":"U","MEAN_MOTION":15.10839362,"ECCENTRICITY":0.0008641,"INCLINATION":97.5019,"RA_OF_ASC_NODE":262.0463,"ARG_OF_PERICENTER":225.5181,"MEAN_ANOMALY":134.5343,"EPHEMERIS_TYPE":0,"NORAD_CAT_ID":45016,"ELEMENT_SET_NO":999,"REV_AT_EPOCH":35839,"BSTAR":0.00016913,"MEAN_MOTION_DOT":0.0000275,"MEAN_MOTION_DDOT":0},{"OBJECT_NAME":"JILIN-1 KUANFU-01B","OBJECT_ID":"2021-061A","EPOCH":"2026-07-07T12:28:41.658240","CLASSIFICATION_TYPE":"U","MEAN_MOTION":15.09785214,"ECCENTRICITY":0.0006764,"INCLINATION":97.52,"RA_OF_ASC_NODE":264.3372,"ARG_OF_PERICENTER":6.2548,"MEAN_ANOMALY":353.8764,"EPHEMERIS_TYPE":0,"NORAD_CAT_ID":49003,"ELEMENT_SET_NO":999,"REV_AT_EPOCH":27641,"BSTAR":0.00013515,"MEAN_MOTION_DOT":0.0000212,"MEAN_MOTION_DDOT":0},{"OBJECT_NAME":"JILIN-1 KUANFU 01C","OBJECT_ID":"2022-048A","EPOCH":"2026-07-07T12:15:27.618048","CLASSIFICATION_TYPE":"U","MEAN_MOTION":15.09572039,"ECCENTRICITY":0.0016868,"INCLINATION":97.5247,"RA_OF_ASC_NODE":265.3152,"ARG_OF_PERICENTER":248.3678,"MEAN_ANOMALY":111.5755,"EPHEMERIS_TYPE":0,"NORAD_CAT_ID":52443,"ELEMENT_SET_NO":999,"REV_AT_EPOCH":23026,"BSTAR":0.00013614,"MEAN_MOTION_DOT":0.00002129,"MEAN_MOTION_DDOT":0},{"OBJECT_NAME":"JILIN-1 KUANFU 02A","OBJECT_ID":"2023-127A","EPOCH":"2026-07-07T12:52:05.780928","CLASSIFICATION_TYPE":"U","MEAN_MOTION":15.10773488,"ECCENTRICITY":0.0009977,"INCLINATION":97.5564,"RA_OF_ASC_NODE":282.0973,"ARG_OF_PERICENTER":266.7439,"MEAN_ANOMALY":93.2649,"EPHEMERIS_TYPE":0,"NORAD_CAT_ID":57696,"ELEMENT_SET_NO":999,"REV_AT_EPOCH":15870,"BSTAR":0.00021021,"MEAN_MOTION_DOT":0.00003427,"MEAN_MOTION_DDOT":0},{"OBJECT_NAME":"JILIN-01 KUANFU 02B 1","OBJECT_ID":"2024-169A","EPOCH":"2026-07-07T12:59:05.691840","CLASSIFICATION_TYPE":"U","MEAN_MOTION":15.09022277,"ECCENTRICITY":0.0002196,"INCLINATION":97.557,"RA_OF_ASC_NODE":277.7493,"ARG_OF_PERICENTER":10.9017,"MEAN_ANOMALY":349.2259,"EPHEMERIS_TYPE":0,"NORAD_CAT_ID":61189,"ELEMENT_SET_NO":999,"REV_AT_EPOCH":9889,"BSTAR":0.00018846,"MEAN_MOTION_DOT":0.00002918,"MEAN_MOTION_DDOT":0},{"OBJECT_NAME":"JILIN-01 KUANFU 02B 2","OBJECT_ID":"2024-169B","EPOCH":"2026-07-07T12:29:28.296096","CLASSIFICATION_TYPE":"U","MEAN_MOTION":15.08986905,"ECCENTRICITY":0.0005071,"INCLINATION":97.5567,"RA_OF_ASC_NODE":277.1148,"ARG_OF_PERICENTER":313.1626,"MEAN_ANOMALY":46.9178,"EPHEMERIS_TYPE":0,"NORAD_CAT_ID":61190,"ELEMENT_SET_NO":999,"REV_AT_EPOCH":9889,"BSTAR":0.00019701,"MEAN_MOTION_DOT":0.00003051,"MEAN_MOTION_DDOT":0},{"OBJECT_NAME":"JILIN-01 KUANFU 02B 3","OBJECT_ID":"2024-169C","EPOCH":"2026-07-07T12:42:37.111680","CLASSIFICATION_TYPE":"U","MEAN_MOTION":15.09023993,"ECCENTRICITY":0.0012521,"INCLINATION":97.5561,"RA_OF_ASC_NODE":277.5567,"ARG_OF_PERICENTER":233.9738,"MEAN_ANOMALY":126.0331,"EPHEMERIS_TYPE":0,"NORAD_CAT_ID":61191,"ELEMENT_SET_NO":999,"REV_AT_EPOCH":9889,"BSTAR":0.00020745,"MEAN_MOTION_DOT":0.00003223,"MEAN_MOTION_DDOT":0},{"OBJECT_NAME":"JILIN-01 KUANFU 02B 4","OBJECT_ID":"2024-169D","EPOCH":"2026-07-07T11:57:31.248576","CLASSIFICATION_TYPE":"U","MEAN_MOTION":15.09007125,"ECCENTRICITY":0.0013298,"INCLINATION":97.5527,"RA_OF_ASC_NODE":277.056,"ARG_OF_PERICENTER":188.9518,"MEAN_ANOMALY":171.1475,"EPHEMERIS_TYPE":0,"NORAD_CAT_ID":61192,"ELEMENT_SET_NO":999,"REV_AT_EPOCH":9889,"BSTAR":0.00016065,"MEAN_MOTION_DOT":0.00002481,"MEAN_MOTION_DDOT":0},{"OBJECT_NAME":"JILIN-01 KUANFU 02B 5","OBJECT_ID":"2024-169E","EPOCH":"2026-07-07T11:39:05.789088","CLASSIFICATION_TYPE":"U","MEAN_MOTION":15.09039469,"ECCENTRICITY":0.0012482,"INCLINATION":97.5572,"RA_OF_ASC_NODE":277.8351,"ARG_OF_PERICENTER":214.4322,"MEAN_ANOMALY":145.6099,"EPHEMERIS_TYPE":0,"NORAD_CAT_ID":61193,"ELEMENT_SET_NO":999,"REV_AT_EPOCH":9889,"BSTAR":0.00015117,"MEAN_MOTION_DOT":0.00002332,"MEAN_MOTION_DDOT":0},{"OBJECT_NAME":"JILIN-01 KUANFU 02B 6","OBJECT_ID":"2024-169F","EPOCH":"2026-07-07T12:12:50.206752","CLASSIFICATION_TYPE":"U","MEAN_MOTION":15.09002898,"ECCENTRICITY":0.0015061,"INCLINATION":97.5557,"RA_OF_ASC_NODE":277.7531,"ARG_OF_PERICENTER":249.4573,"MEAN_ANOMALY":110.504,"EPHEMERIS_TYPE":0,"NORAD_CAT_ID":61194,"ELEMENT_SET_NO":999,"REV_AT_EPOCH":9890,"BSTAR":0.00016451,"MEAN_MOTION_DOT":0.00002543,"MEAN_MOTION_DDOT":0}]}
